[{"OBJECT_NAME":"SHIYAN-24C 01","OBJECT_ID":"2023-206A","EPOCH":"2026-03-09T21:26:37.340736","MEAN_MOTION":14.97903598,"ECCENTRICITY":0.0003675,"INCLINATION":97.3976,"RA_OF_ASC_NODE":41.7846,"ARG_OF_PERICENTER":132.3262,"MEAN_ANOMALY":227.8273,"EPHEMERIS_TYPE":0,"CLASSIFICATION_TYPE":"U","NORAD_CAT_ID":58650,"ELEMENT_SET_NO":999,"REV_AT_EPOCH":12044,"BSTAR":0.00018089,"MEAN_MOTION_DOT":2.076e-5,"MEAN_MOTION_DDOT":0},{"OBJECT_NAME":"STARLINK-34322","OBJECT_ID":"2025-142G","EPOCH":"2026-03-09T21:27:01.386720","MEAN_MOTION":14.98335941,"ECCENTRICITY":0.00026205,"INCLINATION":70.0016,"RA_OF_ASC_NODE":313.8164,"ARG_OF_PERICENTER":270.3197,"MEAN_ANOMALY":89.7661,"EPHEMERIS_TYPE":0,"CLASSIFICATION_TYPE":"U","NORAD_CAT_ID":64702,"ELEMENT_SET_NO":999,"REV_AT_EPOCH":3967,"BSTAR":0.00024374985,"MEAN_MOTION_DOT":2.817e-5,"MEAN_MOTION_DDOT":0}]
